[{"OBJECT_NAME":"RAPTOR3","OBJECT_ID":"2024-028D","EPOCH":"2026-03-09T13:07:46.781472","MEAN_MOTION":13.70481191,"ECCENTRICITY":0.001103,"INCLINATION":39.9902,"RA_OF_ASC_NODE":141.1531,"ARG_OF_PERICENTER":37.2378,"MEAN_ANOMALY":322.9131,"EPHEMERIS_TYPE":0,"CLASSIFICATION_TYPE":"U","NORAD_CAT_ID":58958,"ELEMENT_SET_NO":999,"REV_AT_EPOCH":10339,"BSTAR":5.4463e-5,"MEAN_MOTION_DOT":-2.9e-7,"MEAN_MOTION_DDOT":0},{"OBJECT_NAME":"SL-8 R\/B","OBJECT_ID":"1998-072C","EPOCH":"2026-03-09T17:23:47.752800","MEAN_MOTION":13.74406775,"ECCENTRICITY":0.00194773,"INCLINATION":82.9429,"RA_OF_ASC_NODE":131.955,"ARG_OF_PERICENTER":266.2394,"MEAN_ANOMALY":218.5339,"EPHEMERIS_TYPE":0,"CLASSIFICATION_TYPE":"U","NORAD_CAT_ID":25569,"ELEMENT_SET_NO":999,"REV_AT_EPOCH":36606,"BSTAR":0.00010756403,"MEAN_MOTION_DOT":1.17e-6,"MEAN_MOTION_DDOT":0}]
